[{"OBJECT_NAME":"STARLINK-3515","OBJECT_ID":"2022-016AA","EPOCH":"2026-03-09T21:39:24.578784","MEAN_MOTION":15.08834677,"ECCENTRICITY":0.00013974,"INCLINATION":53.2185,"RA_OF_ASC_NODE":318.1644,"ARG_OF_PERICENTER":101.8565,"MEAN_ANOMALY":258.2585,"EPHEMERIS_TYPE":0,"CLASSIFICATION_TYPE":"U","NORAD_CAT_ID":51738,"ELEMENT_SET_NO":999,"REV_AT_EPOCH":22359,"BSTAR":-1.7675508e-5,"MEAN_MOTION_DOT":-5.69e-6,"MEAN_MOTION_DDOT":0},{"OBJECT_NAME":"COSMOS 249 DEB","OBJECT_ID":"1968-091BY","EPOCH":"2026-03-09T15:02:10.681728","MEAN_MOTION":13.99350738,"ECCENTRICITY":0.050522,"INCLINATION":62.8493,"RA_OF_ASC_NODE":140.5745,"ARG_OF_PERICENTER":190.7995,"MEAN_ANOMALY":168.1879,"EPHEMERIS_TYPE":0,"CLASSIFICATION_TYPE":"U","NORAD_CAT_ID":4008,"ELEMENT_SET_NO":999,"REV_AT_EPOCH":82676,"BSTAR":0.00082652,"MEAN_MOTION_DOT":3.549e-5,"MEAN_MOTION_DDOT":0}]
